start=new Date('2023-05-27T00:00:00.000Z').valueOf();
sats=[{"ARG_OF_PERICENTER":"89.7498","MEAN_MOTION_DOT":"0.00000968","REV_AT_EPOCH":"12342","REF_FRAME":"TEME","SEMIMAJOR_AXIS":"6925.374","MEAN_MOTION_DDOT":"0.0000000000000","FILE":"3917630","BSTAR":"0.00008387300000","MEAN_ELEMENT_THEORY":"SGP4","PERIAPSIS":"546.368","MEAN_ANOMALY":"270.3636","COUNTRY_CODE":"US","RA_OF_ASC_NODE":"123.6252","EPHEMERIS_TYPE":"0","DECAY_DATE":null,"NORAD_CAT_ID":"47813","TIME_SYSTEM":"UTC","EPOCH":"2023-05-26T05:41:23.936640","INCLINATION":"53.0539","OBJECT_TYPE":"PAYLOAD","TLE_LINE2":"2 47813  53.0539 123.6252 0001258  89.7498 270.3636 15.06391672123421","GP_ID":"232553193","APOAPSIS":"548.110","OBJECT_NAME":"STARLINK-2394","ECCENTRICITY":"0.00012580","TLE_LINE1":"1 47813U 21018AC  23146.23708260  .00000968  00000-0  83873-4 0  9995","OBJECT_ID":"2021-018AC","SITE":"AFETR","LAUNCH_DATE":"2021-03-11","ELEMENT_SET_NO":"999","CENTER_NAME":"EARTH","MEAN_MOTION":"15.06391672","RCS_SIZE":"LARGE","CLASSIFICATION_TYPE":"U","PERIOD":"95.593"},{"SEMIMAJOR_AXIS":"6925.336","REF_FRAME":"TEME","REV_AT_EPOCH":"12317","MEAN_MOTION_DOT":"0.00002210","ARG_OF_PERICENTER":"93.4619","FILE":"3917630","MEAN_MOTION_DDOT":"0.0000000000000","PERIAPSIS":"546.382","MEAN_ELEMENT_THEORY":"SGP4","BSTAR":"0.00016717000000","DECAY_DATE":null,"NORAD_CAT_ID":"47814","EPHEMERIS_TYPE":"0","RA_OF_ASC_NODE":"142.9261","COUNTRY_CODE":"US","MEAN_ANOMALY":"266.6506","INCLINATION":"53.0529","EPOCH":"2023-05-26T09:26:58.734240","TIME_SYSTEM":"UTC","ECCENTRICITY":"0.00011830","GP_ID":"232553445","OBJECT_NAME":"STARLINK-2395","APOAPSIS":"548.020","TLE_LINE2":"2 47814  53.0529 142.9261 0001183  93.4619 266.6506 15.06404090123174","OBJECT_TYPE":"PAYLOAD","CENTER_NAME":"EARTH","LAUNCH_DATE":"2021-03-11","ELEMENT_SET_NO":"999","SITE":"AFETR","OBJECT_ID":"2021-018AD","TLE_LINE1":"1 47814U 21018AD  23146.39373535  .00002210  00000-0  16717-3 0  9990","PERIOD":"95.592","CLASSIFICATION_TYPE":"U","RCS_SIZE":"LARGE","MEAN_MOTION":"15.06404090"},{"INCLINATION":"53.0544","EPOCH":"2023-05-26T08:37:13.342944","TIME_SYSTEM":"UTC","ECCENTRICITY":"0.00013650","APOAPSIS":"548.180","GP_ID":"232554195","OBJECT_NAME":"STARLINK-2396","TLE_LINE2":"2 47815  53.0544 138.0779 0001365  82.0176 278.0968 15.06392969123176","OBJECT_TYPE":"PAYLOAD","CENTER_NAME":"EARTH","ELEMENT_SET_NO":"999","LAUNCH_DATE":"2021-03-11","OBJECT_ID":"2021-018AE","SITE":"AFETR","TLE_LINE1":"1 47815U 21018AE  23146.35918221 -.00000151  00000-0  87406-5 0  9992","PERIOD":"95.593","RCS_SIZE":"LARGE","CLASSIFICATION_TYPE":"U","MEAN_MOTION":"15.06392969","REF_FRAME":"TEME","SEMIMAJOR_AXIS":"6925.370","REV_AT_EPOCH":"12317","ARG_OF_PERICENTER":"82.0176","MEAN_MOTION_DOT":"-0.00000151","FILE":"3917630","MEAN_MOTION_DDOT":"0.0000000000000","PERIAPSIS":"546.290","BSTAR":"0.00000874060000","MEAN_ELEMENT_THEORY":"SGP4","RA_OF_ASC_NODE":"138.0779","COUNTRY_CODE":"US","NORAD_CAT_ID":"47815","DECAY_DATE":null,"EPHEMERIS_TYPE":"0","MEAN_ANOMALY":"278.0968"},{"FILE":"3917630","MEAN_MOTION_DDOT":"0.0000000000000","SEMIMAJOR_AXIS":"6925.356","REF_FRAME":"TEME","REV_AT_EPOCH":"12311","MEAN_MOTION_DOT":"0.00001133","ARG_OF_PERICENTER":"90.9284","EPHEMERIS_TYPE":"0","DECAY_DATE":null,"NORAD_CAT_ID":"47816","COUNTRY_CODE":"US","RA_OF_ASC_NODE":"142.7430","MEAN_ANOMALY":"269.1842","PERIAPSIS":"546.391","MEAN_ELEMENT_THEORY":"SGP4","BSTAR":"0.00009495800000","ECCENTRICITY":"0.00011980","GP_ID":"232552444","OBJECT_NAME":"STARLINK-2399","APOAPSIS":"548.050","TLE_LINE2":"2 47816  53.0543 142.7430 0001198  90.9284 269.1842 15.06397732123113","OBJECT_TYPE":"PAYLOAD","INCLINATION":"53.0543","EPOCH":"2023-05-26T10:25:21.828288","TIME_SYSTEM":"UTC","PERIOD":"95.592","CLASSIFICATION_TYPE":"U","RCS_SIZE":"LARGE","MEAN_MOTION":"15.06397732","CENTER_NAME":"EARTH","ELEMENT_SET_NO":"999","LAUNCH_DATE":"2021-03-11","SITE":"AFETR","OBJECT_ID":"2021-018AF","TLE_LINE1":"1 47816U 21018AF  23146.43428042  .00001133  00000-0  94958-4 0  9998"},{"BSTAR":"0.00014106000000","MEAN_ELEMENT_THEORY":"SGP4","PERIAPSIS":"546.407","MEAN_ANOMALY":"268.1626","COUNTRY_CODE":"US","RA_OF_ASC_NODE":"142.9549","DECAY_DATE":null,"EPHEMERIS_TYPE":"0","NORAD_CAT_ID":"47817","ARG_OF_PERICENTER":"91.9495","MEAN_MOTION_DOT":"0.00001820","REF_FRAME":"TEME","SEMIMAJOR_AXIS":"6925.345","REV_AT_EPOCH":"12310","MEAN_MOTION_DDOT":"0.0000000000000","FILE":"3917630","OBJECT_ID":"2021-018AG","SITE":"AFETR","TLE_LINE1":"1 47817U 21018AG  23146.38636198  .00001820  00000-0  14106-3 0  9995","CENTER_NAME":"EARTH","ELEMENT_SET_NO":"999","LAUNCH_DATE":"2021-03-11","MEAN_MOTION":"15.06401016","PERIOD":"95.592","RCS_SIZE":"LARGE","CLASSIFICATION_TYPE":"U","EPOCH":"2023-05-26T09:16:21.675072","TIME_SYSTEM":"UTC","INCLINATION":"53.0534","TLE_LINE2":"2 47817  53.0534 142.9549 0001160  91.9495 268.1626 15.06401016123100","OBJECT_TYPE":"PAYLOAD","ECCENTRICITY":"0.00011600","GP_ID":"232552694","APOAPSIS":"548.014","OBJECT_NAME":"STARLINK-2400"},{"MEAN_MOTION_DDOT":"0.0000000000000","FILE":"3917630","MEAN_MOTION_DOT":"0.00000213","ARG_OF_PERICENTER":"71.9374","REV_AT_EPOCH":"12304","SEMIMAJOR_AXIS":"6925.356","REF_FRAME":"TEME","MEAN_ANOMALY":"288.1722","DECAY_DATE":null,"NORAD_CAT_ID":"47818","EPHEMERIS_TYPE":"0","COUNTRY_CODE":"US","RA_OF_ASC_NODE":"147.8314","MEAN_ELEMENT_THEORY":"SGP4","BSTAR":"0.00003319200000","PERIAPSIS":"546.539","OBJECT_TYPE":"PAYLOAD","TLE_LINE2":"2 47818  53.0534 147.8314 0000984  71.9374 288.1722 15.06397732123043","GP_ID":"232553945","OBJECT_NAME":"STARLINK-2401","APOAPSIS":"547.902","ECCENTRICITY":"0.00009840","TIME_SYSTEM":"UTC","EPOCH":"2023-05-26T09:54:08.643456","INCLINATION":"53.0534","MEAN_MOTION":"15.06397732","CLASSIFICATION_TYPE":"U","RCS_SIZE":"LARGE","PERIOD":"95.592","TLE_LINE1":"1 47818U 21018AH  23146.41260004  .00000213  00000-0  33192-4 0  9991","SITE":"AFETR","OBJECT_ID":"2021-018AH","ELEMENT_SET_NO":"999","LAUNCH_DATE":"2021-03-11","CENTER_NAME":"EARTH"},{"REV_AT_EPOCH":"12317","SEMIMAJOR_AXIS":"6925.384","REF_FRAME":"TEME","MEAN_MOTION_DOT":"-0.00000546","ARG_OF_PERICENTER":"82.5980","FILE":"3917630","MEAN_MOTION_DDOT":"0.0000000000000","PERIAPSIS":"546.587","MEAN_ELEMENT_THEORY":"SGP4","BSTAR":"-0.00001780600000","DECAY_DATE":null,"NORAD_CAT_ID":"47819","EPHEMERIS_TYPE":"0","RA_OF_ASC_NODE":"142.9358","COUNTRY_CODE":"US","MEAN_ANOMALY":"277.5117","INCLINATION":"53.0530","TIME_SYSTEM":"UTC","EPOCH":"2023-05-26T09:20:19.217184","APOAPSIS":"547.910","GP_ID":"232553696","OBJECT_NAME":"STARLINK-2402","ECCENTRICITY":"0.00009550","OBJECT_TYPE":"PAYLOAD","TLE_LINE2":"2 47819  53.0530 142.9358 0000955  82.5980 277.5117 15.06388513123174","LAUNCH_DATE":"2021-03-11","ELEMENT_SET_NO":"999","CENTER_NAME":"EARTH","TLE_LINE1":"1 47819U 21018AJ  23146.38911131 -.00000546  00000-0 -17806-4 0  9997","SITE":"AFETR","OBJECT_ID":"2021-018AJ","CLASSIFICATION_TYPE":"U","RCS_SIZE":"LARGE","PERIOD":"95.593","MEAN_MOTION":"15.06388513"},{"EPOCH":"2023-05-26T05:42:43.340832","TIME_SYSTEM":"UTC","INCLINATION":"53.0536","TLE_LINE2":"2 47820  53.0536 153.6200 0001132 107.7222 252.3890 15.06400138123003","OBJECT_TYPE":"PAYLOAD","ECCENTRICITY":"0.00011320","GP_ID":"232552944","APOAPSIS":"547.997","OBJECT_NAME":"STARLINK-2403","SITE":"AFETR","OBJECT_ID":"2021-018AK","TLE_LINE1":"1 47820U 21018AK  23146.23800163  .00000951  00000-0  82751-4 0  9994","CENTER_NAME":"EARTH","LAUNCH_DATE":"2021-03-11","ELEMENT_SET_NO":"999","MEAN_MOTION":"15.06400138","PERIOD":"95.592","CLASSIFICATION_TYPE":"U","RCS_SIZE":"LARGE","MEAN_MOTION_DOT":"0.00000951","ARG_OF_PERICENTER":"107.7222","SEMIMAJOR_AXIS":"6925.348","REF_FRAME":"TEME","REV_AT_EPOCH":"12300","MEAN_MOTION_DDOT":"0.0000000000000","FILE":"3917630","MEAN_ELEMENT_THEORY":"SGP4","BSTAR":"0.00008275100000","PERIAPSIS":"546.429","MEAN_ANOMALY":"252.3890","DECAY_DATE":null,"NORAD_CAT_ID":"47820","EPHEMERIS_TYPE":"0","COUNTRY_CODE":"US","RA_OF_ASC_NODE":"153.6200"},{"FILE":"3917312","MEAN_MOTION_DDOT":"0.0000000000000","REV_AT_EPOCH":"12275","REF_FRAME":"TEME","SEMIMAJOR_AXIS":"6925.367","ARG_OF_PERICENTER":"83.9671","MEAN_MOTION_DOT":"0.00000843","COUNTRY_CODE":"US","RA_OF_ASC_NODE":"143.7281","NORAD_CAT_ID":"47821","DECAY_DATE":null,"EPHEMERIS_TYPE":"0","MEAN_ANOMALY":"276.1443","PERIAPSIS":"546.472","BSTAR":"0.00007550700000","MEAN_ELEMENT_THEORY":"SGP4","GP_ID":"232525358","OBJECT_NAME":"STARLINK-2406","APOAPSIS":"547.992","ECCENTRICITY":"0.00010970","OBJECT_TYPE":"PAYLOAD","TLE_LINE2":"2 47821  53.0535 143.7281 0001097  83.9671 276.1443 15.06393928122752","INCLINATION":"53.0535","TIME_SYSTEM":"UTC","EPOCH":"2023-05-26T05:12:12.799584","RCS_SIZE":"LARGE","CLASSIFICATION_TYPE":"U","PERIOD":"95.593","MEAN_MOTION":"15.06393928","ELEMENT_SET_NO":"999","LAUNCH_DATE":"2021-03-11","CENTER_NAME":"EARTH","TLE_LINE1":"1 47821U 21018AL  23146.21681481  .00000843  00000-0  75507-4 0  9994","OBJECT_ID":"2021-018AL","SITE":"AFETR"},{"FILE":"3917850","MEAN_MOTION_DDOT":"0.0000000000000","SEMIMAJOR_AXIS":"6925.338","REF_FRAME":"TEME","REV_AT_EPOCH":"12301","MEAN_MOTION_DOT":"0.00002036","ARG_OF_PERICENTER":"79.4746","DECAY_DATE":null,"NORAD_CAT_ID":"47822","EPHEMERIS_TYPE":"0","COUNTRY_CODE":"US","RA_OF_ASC_NODE":"151.8812","MEAN_ANOMALY":"280.6367","PERIAPSIS":"546.441","MEAN_ELEMENT_THEORY":"SGP4","BSTAR":"0.00015549000000","ECCENTRICITY":"0.00011010","GP_ID":"232585595","APOAPSIS":"547.966","OBJECT_NAME":"STARLINK-2407","TLE_LINE2":"2 47822  53.0532 151.8812 0001101  79.4746 280.6367 15.06403349123013","OBJECT_TYPE":"PAYLOAD","INCLINATION":"53.0532","EPOCH":"2023-05-26T14:58:40.611360","TIME_SYSTEM":"UTC","PERIOD":"95.592","CLASSIFICATION_TYPE":"U","RCS_SIZE":"LARGE","MEAN_MOTION":"15.06403349","CENTER_NAME":"EARTH","LAUNCH_DATE":"2021-03-11","ELEMENT_SET_NO":"999","SITE":"AFETR","OBJECT_ID":"2021-018AM","TLE_LINE1":"1 47822U 21018AM  23146.62408115  .00002036  00000-0  15549-3 0  9996"}];
